ONEWEB-0300             
1 49089U 21075Q   25192.85748652  .00000287  00000+0  76137-3 0  9992
2 49089  87.8855  58.3268 0001809  92.9464 267.1872 13.12442892190567
ONEWEB-0301             
1 49090U 21075R   25192.91750441 -.00001524  00000+0 -42714-2 0  9990
2 49090  87.8857  58.3210 0001841  91.0890 269.0449 13.12453938189930
ONEWEB-0302             
1 49091U 21075S   25192.90452891  .00000122  00000+0  30459-3 0  9993
2 49091  87.8857  58.3249 0001884  70.0013 290.1318 13.12444645189917
ONEWEB-0304             
1 49092U 21075T   25192.89835589  .00000075  00000+0  15999-3 0  9990
2 49092  87.9053  73.6044 0001696  77.4930 282.6391 13.17647958188766
ONEWEB-0305             
1 49093U 21075U   25192.36005619  .00000105  00000+0  23724-3 0  9995
2 49093  87.9053  73.6886 0001408  73.6874 286.4412 13.17649677188729
ONEWEB-0308             
1 49094U 21075V   25192.89803439 -.00000167  00000+0 -49839-3 0  9995
2 49094  87.8856  58.3207 0001796  82.4927 277.6406 13.12444870189925
ONEWEB-0309             
1 49095U 21075W   25192.89498726  .00000032  00000+0  49517-4 0  9998
2 49095  87.9052  73.5988 0002001  66.5843 293.5499 13.17648630188765
ONEWEB-0310             
1 49096U 21075X   25192.91263516 -.00001300  00000+0 -36491-2 0  9995
2 49096  87.8865  58.3619 0002005  76.2264 283.9088 13.12452913190557
